IXPE                    
1 49954U 21121A   24268.00001157  .00009557  00000+0  67973-3 0  9994
2 49954   0.2321  19.0480 0009040 308.3494 192.3466 15.00071538  5812
